#cP2023 11 14  0  0  0.00000000      96 ORBIT IGS20 HLM  IGS
## 2288 172800.00000000   900.00000000 60262 0.0000000000000
+   32   G01G02G03G04G05G06G07G08G09G10G11G12G13G14G15G16G17
+        G18G19G20G21G22G23G24G25G26G27G28G29G30G31G32  0  0
+          0  0  0  0  0  0  0  0  0  0  0  0  0  0  0  0  0
+          0  0  0  0  0  0  0  0  0  0  0  0  0  0  0  0  0
+          0  0  0  0  0  0  0  0  0  0  0  0  0  0  0  0  0
++         2  2  2  2  2  2  2  2  2  2  2  2  2  2  2  2  2
++         2  2  2  2  2  2  2  2  3  2  2  2  2  2  2  0  0
++         0  0  0  0  0  0  0  0  0  0  0  0  0  0  0  0  0
++         0  0  0  0  0  0  0  0  0  0  0  0  0  0  0  0  0
++         0  0  0  0  0  0  0  0  0  0  0  0  0  0  0  0  0
%c G  cc GPS ccc cccc cccc cccc cccc ccccc ccccc ccccc ccccc
%c cc cc ccc ccc cccc cccc cccc cccc ccccc ccccc ccccc ccccc
%f  1.2500000  1.025000000  0.00000000000  0.000000000000000
%f  0.0000000  0.000000000  0.00000000000  0.000000000000000
%i    0    0    0    0      0      0      0      0         0
%i    0    0    0    0      0      0      0      0         0
/* RAPID ORBIT COMBINATION FROM WEIGHTED AVERAGE OF:        
/* cod emr esa gfz grg jgx jpl ngs sio usn whu              
/* REFERENCED TO IGS TIME (IGST) AND TO WEIGHTED MEAN POLE: 
/* PCV:IGS20      OL/AL:FES2014b NONE     Y  ORB:CMB CLK:CMB
*  2023 11 14 13 30  0.00000000
PG01 -14447.292298  20351.755296   8218.092337    163.195288  8  6  9  93       
PG02 -15534.224231  16034.832408  14740.582558   -529.072163  8  6  5  97       
PG03 -19282.791017  12059.466934 -13771.478593    -14.751425  5  6  6  73       
PG04  -8383.342246  13530.077168 -21234.062400    212.644459  8  7  5  91       
PG05  26010.374280  -5550.788677    738.229263   -150.350533  8  6  5  95       
PG06   9466.540804  13145.038630 -20958.567149    506.145004  5  5  5  91       
PG07  -3746.287860  24905.978358   8095.264315     13.688945  6  2  1  94       
PG08 -15223.141845   5086.601121  21144.840039   -152.068122  4  5  6  84       
PG09   1955.096657  20701.201680 -16582.490739     -3.200378  7  2  5  93       
PG10 -13362.152843 -11621.985428  20090.287340    -61.361320  5  6  7  89       
PG11  15751.725537   1004.261964 -21332.054768   -459.692255  8  3  8 106       
PG12  21087.208794 -10349.842499 -12602.550558   -446.899257  9  7  6 102       
PG13  18088.677434   5986.027033  18391.884717    595.179018  4  3     65       
PG14   9364.886435  13868.646221  20684.032138    243.002990  5  4  5  73       
PG15  14226.291916  -7596.923689  20643.463731     97.044991  4  5  3  72       
PG16 -26455.400673  -1532.315181  -4371.983524   -422.219584  7  6  6  79       
PG17  12207.451770  23134.181746   4614.442558    723.244859  7  2  6  81       
PG18   3440.682411 -24529.637748   9341.882197   -478.841891  7  5  3 100       
PG19  16817.144690  20221.602346  -5054.249309    398.795460  7  3  3  65       
PG20  23848.363833    757.859195 -11421.272297    401.677087  7  6  5  99       
PG21 -16155.301557  12273.126409  17136.044609    144.287643  8  5  6  98       
PG22  15830.072055  11756.577022  18105.883287     84.073887  6  2  4  70       
PG23    720.975075 -15100.329849  21834.882926     98.789446  6  5  3  94       
PG24  14910.427500 -17407.690090  12655.048529   -371.021362  4  2  6  99       
PG25   8985.921461 -15656.885961 -19717.344917    477.346519  9  8  8  95       
PG26 -22578.132236  -5197.662883 -13439.091133    216.699836  6  7  8  41       
PG27 -20172.560187  -8611.996106  15011.867555    -69.812176  4  3  5  87       
PG28  -9265.353339 -15098.065539 -19816.640935    -46.020292  7  5  3  92       
PG29     63.488552 -20484.873468 -16893.331502   -610.226926  9  3  4 101       
PG30   4223.008796  20818.693127  15901.359867   -468.337478  5  6  3  93       
PG31 -14187.231878  -6116.721559 -21802.547750   -225.730258  7  2  6 103       
PG32 -16196.745008 -21180.599486    938.259156   -585.602539  4  6  5  85       
*  2023 11 14 13 45  0.00000000
PG01 -14209.038278  19218.466816  10862.205528    163.195319  8  6  8  76       
PG02 -15240.482432  14326.185310  16756.674919   -529.067449  7  6  5  98       
PG03 -20708.525563  12145.621835 -11385.320656    -14.728541  4  6  6  87       
PG04  -9938.333983  11624.704291 -21698.084150    212.653850  8  7  5  84       
PG05  26002.123490  -5317.984374  -2126.644995   -150.351298  8  6  5  84       
PG06   8576.811000  15314.295295 -19834.249837    506.136006  6  5  5  91       
PG07  -4276.242776  25486.670668   5375.510537     13.679983  7  3  1  99       
PG08 -16770.445866   3271.416925  20357.333075   -152.069447  3  5  6  85       
PG09    522.143056  19322.466103 -18280.752666     -3.190283  7  2  5  81       
PG10 -11100.782574 -12083.623734  21147.510068    -61.363173  5  6  6  83       
PG11  14834.270831   3296.911368 -21758.649837   -459.706893  7  3  7 104       
PG12  22368.263134 -10279.410798 -10154.095407   -446.903041  9  7  6 107       
PG13  19061.304534   7777.764682  16697.876045    595.182960  4  3  1  82       
PG14   7000.574949  14282.763130  21312.919781    243.012656  5  4  5  99       
PG15  15989.425406  -5926.955778  19924.099407     97.048038  4  5  3  63       
PG16 -25863.821679  -1786.003360  -7108.399003   -422.213552  6  5  6  86       
PG17  11650.412905  22753.517114   7389.542977    723.244389  7  1  6  93       
PG18   3968.633168 -25309.045666   6648.017305   -478.851693  7  6  3  98       
PG19  16873.796166  20655.695810  -2238.861946    398.800258  7  3  4  82       
PG20  22564.760404   1483.488285 -13732.586554    401.675470  6  6  5 104       
PG21 -15818.443822  10295.633121  18805.216356    144.286625  7  5  5  94       
PG22  13767.111939  12067.370229  19589.483128     84.067723  6  2  4  86       
PG23   3140.795229 -15557.165248  21276.794030     98.795183  5  5  4  97       
PG24  14773.446693 -15735.811714  14798.903088   -371.029422  4  2  6  92       
PG25  11100.901216 -15923.949200 -18331.544356    477.348019  8  8  8  99       
PG26 -21055.550711  -5815.705021 -15486.978341    216.697387  6  5  8  79       
PG27 -21093.560204  -9951.883665  12831.672785    -69.817005  4  4  6  76       
PG28  -8478.570713 -17139.946691 -18459.841357    -46.027904  7  5  3  76       
PG29   1353.750480 -18921.185201 -18591.225849   -610.227035  8  4  4 107       
PG30   3404.741634  22330.373721  13880.889405   -468.333852  5  6  3 105       
PG31 -13272.839251  -8383.548867 -21585.015492   -225.730548  7  2  6  91       
PG32 -15854.174437 -21148.704845   3764.052590   -585.606628  4  6  5  93       
*  2023 11 14 14  0  0.00000000
PG01 -13946.628242  17792.079386  13312.744432    163.195320  7  6  8  99       
PG02 -14995.398365  12403.461839  18492.119339   -529.063120  7  6  5  96       
PG03 -21854.781082  12244.029610  -8803.452352    -14.705651  3  6  6  79       
PG04 -11611.018515   9780.890497 -21788.174945    212.663255  8  6  6  95       
PG05  25697.358572  -4996.503135  -4955.203852   -150.353281  8  7  5  88       
PG06   7853.919721  17389.345654 -18365.755093    506.126904  5  4  4  97       
PG07  -4691.274517  25791.683105   2561.558730     13.671297  7  4  2 111       
PG08 -18329.518169   1618.192033  19220.213490   -152.071105  3  5  6  79       
PG09  -1101.856343  17896.524287 -19666.016675     -3.180168  7  2  5  98       
PG10  -8770.888433 -12695.587534  21849.181872    -61.364418  4  6  6  89       
PG11  14030.480433   5659.943857 -21809.997623   -459.721510  6  3  7 106       
PG12  23371.108262 -10227.560149  -7532.257883   -446.906935  8  7  6  94       
PG13  20006.133892   9342.155439  14714.787476    595.186646  5  3  3  98       
PG14   4609.151076  14825.762474  21576.477018    243.022353  5  4  5 105       
PG15  17744.842609  -4407.643467  18848.615447     97.051478  5  5  3  69       
PG16 -24991.833693  -2113.891152  -9726.818605   -422.207754  6  4  6  97       
PG17  10880.308088  22168.037189  10038.203889    723.244042  7     6  98       
PG18   4359.931955 -25816.992928   3838.522867   -478.861562  7  7  3  98       
PG19  16759.183421  20834.608674    614.165043    398.804936  6  4  4  93       
PG20  21090.865136   2370.869855 -15804.793967    401.673846  5  6  4  96       
PG21 -15550.839159   8146.885328  20153.835831    144.285836  6  6  5  87       
PG22  11582.099097  12507.178533  20745.405840     84.061253  6  2  4  97       
PG23   5452.664750 -16123.408563  20351.940862     98.800933  4  5  4  91       
PG24  14668.928924 -13832.355841  16676.547151   -371.037490  4  2  6  88       
PG25  13035.965157 -16255.604035 -16635.199497    477.349514  8  8  9  89       
PG26 -19359.845447  -6572.479424 -17274.742444    216.694972  6  4  8  88       
PG27 -21904.555332 -11050.454327  10432.100337    -69.821844  4  4  5  84       
PG28  -7842.512820 -19054.388392 -16786.047881    -46.035556  7  5  3 106       
PG29   2836.164978 -17295.152745 -19969.231854   -610.226890  8  5  4 107       
PG30   2728.203663  23649.511542  11620.263930   -468.330247  5  5  4 107       
PG31 -12488.536098 -10655.719227 -21001.463983   -225.730871  7  2  6  96       
PG32 -15292.901497 -20908.357377   6526.072406   -585.610677  3  6  5  88       
EOF
